[{"OBJECT_NAME":"STARLINK-32840","OBJECT_ID":"2025-063A","EPOCH":"2026-03-09T07:45:01.816416","MEAN_MOTION":15.3022266,"ECCENTRICITY":9.722e-5,"INCLINATION":53.1597,"RA_OF_ASC_NODE":51.3178,"ARG_OF_PERICENTER":110.3266,"MEAN_ANOMALY":249.7839,"EPHEMERIS_TYPE":0,"CLASSIFICATION_TYPE":"U","NORAD_CAT_ID":63363,"ELEMENT_SET_NO":999,"REV_AT_EPOCH":5472,"BSTAR":0.0011441373,"MEAN_MOTION_DOT":0.00033704,"MEAN_MOTION_DDOT":0},{"OBJECT_NAME":"KUIPER-00175","OBJECT_ID":"2025-301C","EPOCH":"2026-03-09T23:30:37.840032","MEAN_MOTION":15.30996371,"ECCENTRICITY":0.00022792,"INCLINATION":51.8781,"RA_OF_ASC_NODE":63.6978,"ARG_OF_PERICENTER":50.5695,"MEAN_ANOMALY":309.549,"EPHEMERIS_TYPE":0,"CLASSIFICATION_TYPE":"U","NORAD_CAT_ID":67135,"ELEMENT_SET_NO":999,"REV_AT_EPOCH":1385,"BSTAR":0.00066732304,"MEAN_MOTION_DOT":0.00019968,"MEAN_MOTION_DDOT":0}]
